[{"OBJECT_NAME":"JILIN-1 KUANFU-01B","OBJECT_ID":"2021-061A","EPOCH":"2026-03-09T22:54:34.499808","MEAN_MOTION":15.09454544,"ECCENTRICITY":0.00089006,"INCLINATION":97.5272,"RA_OF_ASC_NODE":146.9765,"ARG_OF_PERICENTER":57.5197,"MEAN_ANOMALY":302.6891,"EPHEMERIS_TYPE":0,"CLASSIFICATION_TYPE":"U","NORAD_CAT_ID":49003,"ELEMENT_SET_NO":999,"REV_AT_EPOCH":25837,"BSTAR":0.00023291265,"MEAN_MOTION_DOT":3.668e-5,"MEAN_MOTION_DDOT":0},{"OBJECT_NAME":"STARLINK-3532","OBJECT_ID":"2022-016P","EPOCH":"2026-03-09T23:24:04.221504","MEAN_MOTION":15.0883683,"ECCENTRICITY":0.00013734,"INCLINATION":53.2188,"RA_OF_ASC_NODE":327.8415,"ARG_OF_PERICENTER":83.1131,"MEAN_ANOMALY":277.0017,"EPHEMERIS_TYPE":0,"CLASSIFICATION_TYPE":"U","NORAD_CAT_ID":51727,"ELEMENT_SET_NO":999,"REV_AT_EPOCH":22346,"BSTAR":7.9535108e-5,"MEAN_MOTION_DOT":9.78e-6,"MEAN_MOTION_DDOT":0}]
